SL-3 R/B                
1 13403U 82079B   26072.93228460  .00008164  00000+0  32446-3 0  9998
2 13403  81.1479 188.0680 0025237 150.5542 209.7119 15.24867789378346
SL-14 R/B               
1 13553U 82092B   26072.63313476  .00000528  00000+0  56604-4 0  9997
2 13553  82.5689 137.7115 0018839 289.4979 230.7637 14.86670719329516
SL-3 R/B                
1 13819U 83010B   26072.25508695  .00017425  00000+0  34825-3 0  9994
2 13819  81.1059 357.8766 0017762  39.4433 320.8101 15.46493922358498
SL-3 R/B                
1 14208U 83075B   26072.97984715  .00012162  00000+0  31974-3 0  9993
2 14208  97.6143  77.7198 0020533 209.6151 150.3932 15.38528561330815
COSMOS 1536             
1 14699U 84013A   26072.79115265  .00007116  00000+0  29297-3 0  9994
2 14699  82.5428 103.7728 0012467 267.2106  92.7704 15.23883436273242
SL-14 R/B               
1 14820U 84027B   26072.93539330  .00000607  00000+0  66583-4 0  9992
2 14820  82.5392 241.0296 0017022 323.2528  36.7520 14.85981509248262
SL-8 R/B                
1 15483U 85006B   26072.98327669  .00000385  00000+0  13622-3 0  9999
2 15483  74.0432 253.2469 0018266 169.9686 310.0381 14.37786524154645
SL-12 R/B(2)            
1 15772U 85042D   26072.44243043  .00000181  00000+0  10268-3 0  9991
2 15772  71.1063  79.7994 0033085 121.9535  41.1642 14.21983557114922
SL-14 R/B               
1 15945U 85069B   26072.91888970  .00000617  00000+0  66933-4 0  9993
2 15945  82.5292  20.9568 0018854 173.5972 186.5489 14.86438606173462
SL-16 R/B               
1 16182U 85097B   26072.89218957 -.00000054  00000+0 -29998-5 0  9995
2 16182  71.0019 131.7073 0009793 254.5746 278.0960 14.16598144 87821
SL-14 R/B               
1 16496U 86006B   26072.96215774  .00000804  00000+0  82986-4 0  9992
2 16496  82.5236 255.7149 0075072 258.3339 100.9446 14.86821655149847
COSMOS 1743             
1 16719U 86034A   26072.94331496  .00038915  00000+0  50084-3 0  9996
2 16719  82.5292  69.3651 0001607 252.8944 107.2137 15.58879274180918
